[{"OBJECT_NAME":"NETSAT-1","OBJECT_ID":"2020-068W","EPOCH":"2026-03-09T22:42:38.711232","MEAN_MOTION":15.32042482,"ECCENTRICITY":0.00057337,"INCLINATION":97.8751,"RA_OF_ASC_NODE":63.2583,"ARG_OF_PERICENTER":18.5877,"MEAN_ANOMALY":341.5572,"EPHEMERIS_TYPE":0,"CLASSIFICATION_TYPE":"U","NORAD_CAT_ID":46506,"ELEMENT_SET_NO":999,"REV_AT_EPOCH":30009,"BSTAR":0.00059222329,"MEAN_MOTION_DOT":0.00018269,"MEAN_MOTION_DDOT":0},{"OBJECT_NAME":"STARLINK-30555","OBJECT_ID":"2023-156N","EPOCH":"2026-03-09T11:52:56.619264","MEAN_MOTION":15.30193734,"ECCENTRICITY":0.00010395,"INCLINATION":53.1602,"RA_OF_ASC_NODE":169.0427,"ARG_OF_PERICENTER":79.1204,"MEAN_ANOMALY":280.9914,"EPHEMERIS_TYPE":0,"CLASSIFICATION_TYPE":"U","NORAD_CAT_ID":58040,"ELEMENT_SET_NO":999,"REV_AT_EPOCH":13500,"BSTAR":-1.4475732e-5,"MEAN_MOTION_DOT":-7.88e-6,"MEAN_MOTION_DDOT":0}]
